DELTA 2 R/B(1)          
1 20453U 90008B   26055.85522148  .00063112  00000+0  78932-3 0  9998
2 20453  35.6035 258.9629 0088097 139.2775 221.4588 15.54027537924133
COSMOS 2058             
1 20465U 90010A   26055.47193584  .00004080  00000+0  24116-3 0  9994
2 20465  82.4674  60.4501 0010297  27.9457 332.2323 15.11188148940244
SL-14 R/B               
1 20466U 90010B   26055.33242628  .00000375  00000+0  42606-4 0  9992
2 20466  82.5001 279.9383 0019495 348.3941  11.6822 14.83556186926506
SL-14 R/B               
1 20511U 90018B   26055.74246487  .00000473  00000+0  56354-4 0  9997
2 20511  82.5183 235.1928 0017390 131.4881 228.7829 14.82128522920660
HST                     
1 20580U 90037B   26055.50023499  .00007544  00000+0  25044-3 0  9991
2 20580  28.4688 129.9586 0001224 343.5481  16.5075 15.29250790771290
SL-16 R/B               
1 20625U 90046B   26055.76060848  .00000002  00000+0  25488-4 0  9993
2 20625  71.0016 325.0671 0015791 317.3358  42.6538 14.15015254846564
COSMOS 2084             
1 20663U 90055A   26055.63789788  .00003013  00000+0  22135-3 0  9992
2 20663  62.7913  20.0885 0019113 186.9601 173.1237 15.05556156934353
SL-6 R/B(2)             
1 20666U 90055D   26055.66929730  .00002082  00000+0  16563-3 0  9994
2 20666  62.7831 298.1277 0022732 343.7050  16.3316 15.03525271936237
SL-8 R/B                
1 20775U 90078B   26055.53734376  .00013182  00000+0  38656-3 0  9996
2 20775  82.9007 263.1362 0365109  58.1257 305.4943 14.88582738807348
SL-8 R/B                
1 21088U 91006B   26055.78852262  .00000056  00000+0  41031-4 0  9996
2 21088  82.9460 179.6363 0023651  72.9451  91.6576 13.77492809762290
OKEAN-3                 
1 21397U 91039A   26055.77841649  .00003267  00000+0  22971-3 0  9999
2 21397  82.5201 349.3487 0014912  21.4711 338.7138 15.04701339863095
COSMOS 2151             
1 21422U 91042A   26055.80926868  .00001480  00000+0  11648-3 0  9997
2 21422  82.4939  96.1036 0014120 102.0827 258.1980 15.00049475861262
