CCSDS_OMM_VERS = 2.0
CREATION_DATE  = 
ORIGINATOR     = 

OBJECT_NAME    = DELTA 2 R/B(1)
OBJECT_ID      = 1990-008B
CENTER_NAME    = EARTH
REF_FRAME      = TEME
TIME_SYSTEM    = UTC
MEAN_ELEMENT_THEORY = SGP/SGP4

EPOCH          = 2026-02-24T20:31:31.135872
MEAN_MOTION    = 15.54027537
ECCENTRICITY   = .0088097
INCLINATION    = 35.6035
RA_OF_ASC_NODE = 258.9629
ARG_OF_PERICENTER = 139.2775
MEAN_ANOMALY   = 221.4588

EPHEMERIS_TYPE = 0
CLASSIFICATION_TYPE = U
NORAD_CAT_ID   = 20453
ELEMENT_SET_NO = 999
REV_AT_EPOCH   = 92413
BSTAR          = .78932E-3
MEAN_MOTION_DOT = .63112E-3
MEAN_MOTION_DDOT = 0

CCSDS_OMM_VERS = 2.0
CREATION_DATE  = 
ORIGINATOR     = 

OBJECT_NAME    = COSMOS 2058
OBJECT_ID      = 1990-010A
CENTER_NAME    = EARTH
REF_FRAME      = TEME
TIME_SYSTEM    = UTC
MEAN_ELEMENT_THEORY = SGP/SGP4

EPOCH          = 2026-02-24T11:19:35.256576
MEAN_MOTION    = 15.11188148
ECCENTRICITY   = .00102973
INCLINATION    = 82.4674
RA_OF_ASC_NODE = 60.4501
ARG_OF_PERICENTER = 27.9457
MEAN_ANOMALY   = 332.2323

EPHEMERIS_TYPE = 0
CLASSIFICATION_TYPE = U
NORAD_CAT_ID   = 20465
ELEMENT_SET_NO = 999
REV_AT_EPOCH   = 94024
BSTAR          = .241165E-3
MEAN_MOTION_DOT = .408E-4
MEAN_MOTION_DDOT = 0

CCSDS_OMM_VERS = 2.0
CREATION_DATE  = 
ORIGINATOR     = 

OBJECT_NAME    = SL-14 R/B
OBJECT_ID      = 1990-010B
CENTER_NAME    = EARTH
REF_FRAME      = TEME
TIME_SYSTEM    = UTC
MEAN_ELEMENT_THEORY = SGP/SGP4

EPOCH          = 2026-02-24T07:58:41.630592
MEAN_MOTION    = 14.83556186
ECCENTRICITY   = .00194955
INCLINATION    = 82.5001
RA_OF_ASC_NODE = 279.9383
ARG_OF_PERICENTER = 348.3941
MEAN_ANOMALY   = 11.6822

EPHEMERIS_TYPE = 0
CLASSIFICATION_TYPE = U
NORAD_CAT_ID   = 20466
ELEMENT_SET_NO = 999
REV_AT_EPOCH   = 92650
BSTAR          = .42605811E-4
MEAN_MOTION_DOT = .375E-5
MEAN_MOTION_DDOT = 0

CCSDS_OMM_VERS = 2.0
CREATION_DATE  = 
ORIGINATOR     = 

OBJECT_NAME    = SL-14 R/B
OBJECT_ID      = 1990-018B
CENTER_NAME    = EARTH
REF_FRAME      = TEME
TIME_SYSTEM    = UTC
MEAN_ELEMENT_THEORY = SGP/SGP4

EPOCH          = 2026-02-24T17:49:08.964768
MEAN_MOTION    = 14.82128522
ECCENTRICITY   = .001739
INCLINATION    = 82.5183
RA_OF_ASC_NODE = 235.1928
ARG_OF_PERICENTER = 131.4881
MEAN_ANOMALY   = 228.7829

EPHEMERIS_TYPE = 0
CLASSIFICATION_TYPE = U
NORAD_CAT_ID   = 20511
ELEMENT_SET_NO = 999
REV_AT_EPOCH   = 92066
BSTAR          = .56354E-4
MEAN_MOTION_DOT = .473E-5
MEAN_MOTION_DDOT = 0

CCSDS_OMM_VERS = 2.0
CREATION_DATE  = 
ORIGINATOR     = 

OBJECT_NAME    = HST
OBJECT_ID      = 1990-037B
CENTER_NAME    = EARTH
REF_FRAME      = TEME
TIME_SYSTEM    = UTC
MEAN_ELEMENT_THEORY = SGP/SGP4

EPOCH          = 2026-02-24T12:00:20.303136
MEAN_MOTION    = 15.29250790
ECCENTRICITY   = .00012244
INCLINATION    = 28.4688
RA_OF_ASC_NODE = 129.9586
ARG_OF_PERICENTER = 343.5481
MEAN_ANOMALY   = 16.5075

EPHEMERIS_TYPE = 0
CLASSIFICATION_TYPE = U
NORAD_CAT_ID   = 20580
ELEMENT_SET_NO = 999
REV_AT_EPOCH   = 77129
BSTAR          = .25043914E-3
MEAN_MOTION_DOT = .7544E-4
MEAN_MOTION_DDOT = 0

CCSDS_OMM_VERS = 2.0
CREATION_DATE  = 
ORIGINATOR     = 

OBJECT_NAME    = SL-16 R/B
OBJECT_ID      = 1990-046B
CENTER_NAME    = EARTH
REF_FRAME      = TEME
TIME_SYSTEM    = UTC
MEAN_ELEMENT_THEORY = SGP/SGP4

EPOCH          = 2026-02-24T18:15:16.572672
MEAN_MOTION    = 14.15015254
ECCENTRICITY   = .0015791
INCLINATION    = 71.0016
RA_OF_ASC_NODE = 325.0671
ARG_OF_PERICENTER = 317.3358
MEAN_ANOMALY   = 42.6538

EPHEMERIS_TYPE = 0
CLASSIFICATION_TYPE = U
NORAD_CAT_ID   = 20625
ELEMENT_SET_NO = 999
REV_AT_EPOCH   = 84656
BSTAR          = .25488E-4
MEAN_MOTION_DOT = .2E-7
MEAN_MOTION_DDOT = 0

CCSDS_OMM_VERS = 2.0
CREATION_DATE  = 
ORIGINATOR     = 

OBJECT_NAME    = COSMOS 2084
OBJECT_ID      = 1990-055A
CENTER_NAME    = EARTH
REF_FRAME      = TEME
TIME_SYSTEM    = UTC
MEAN_ELEMENT_THEORY = SGP/SGP4

EPOCH          = 2026-02-24T15:18:34.376832
MEAN_MOTION    = 15.05556156
ECCENTRICITY   = .0019113
INCLINATION    = 62.7913
RA_OF_ASC_NODE = 20.0885
ARG_OF_PERICENTER = 186.9601
MEAN_ANOMALY   = 173.1237

EPHEMERIS_TYPE = 0
CLASSIFICATION_TYPE = U
NORAD_CAT_ID   = 20663
ELEMENT_SET_NO = 999
REV_AT_EPOCH   = 93435
BSTAR          = .22135E-3
MEAN_MOTION_DOT = .3013E-4
MEAN_MOTION_DDOT = 0

CCSDS_OMM_VERS = 2.0
CREATION_DATE  = 
ORIGINATOR     = 

OBJECT_NAME    = SL-6 R/B(2)
OBJECT_ID      = 1990-055D
CENTER_NAME    = EARTH
REF_FRAME      = TEME
TIME_SYSTEM    = UTC
MEAN_ELEMENT_THEORY = SGP/SGP4

EPOCH          = 2026-02-24T16:03:47.286720
MEAN_MOTION    = 15.03525271
ECCENTRICITY   = .0022732
INCLINATION    = 62.7831
RA_OF_ASC_NODE = 298.1277
ARG_OF_PERICENTER = 343.7050
MEAN_ANOMALY   = 16.3316

EPHEMERIS_TYPE = 0
CLASSIFICATION_TYPE = U
NORAD_CAT_ID   = 20666
ELEMENT_SET_NO = 999
REV_AT_EPOCH   = 93623
BSTAR          = .16563E-3
MEAN_MOTION_DOT = .2082E-4
MEAN_MOTION_DDOT = 0

CCSDS_OMM_VERS = 2.0
CREATION_DATE  = 
ORIGINATOR     = 

OBJECT_NAME    = SL-8 R/B
OBJECT_ID      = 1990-078B
CENTER_NAME    = EARTH
REF_FRAME      = TEME
TIME_SYSTEM    = UTC
MEAN_ELEMENT_THEORY = SGP/SGP4

EPOCH          = 2026-02-24T12:53:46.500864
MEAN_MOTION    = 14.88582738
ECCENTRICITY   = .0365109
INCLINATION    = 82.9007
RA_OF_ASC_NODE = 263.1362
ARG_OF_PERICENTER = 58.1257
MEAN_ANOMALY   = 305.4943

EPHEMERIS_TYPE = 0
CLASSIFICATION_TYPE = U
NORAD_CAT_ID   = 20775
ELEMENT_SET_NO = 999
REV_AT_EPOCH   = 80734
BSTAR          = .38656E-3
MEAN_MOTION_DOT = .13182E-3
MEAN_MOTION_DDOT = 0

CCSDS_OMM_VERS = 2.0
CREATION_DATE  = 
ORIGINATOR     = 

OBJECT_NAME    = SL-8 R/B
OBJECT_ID      = 1991-006B
CENTER_NAME    = EARTH
REF_FRAME      = TEME
TIME_SYSTEM    = UTC
MEAN_ELEMENT_THEORY = SGP/SGP4

EPOCH          = 2026-02-24T18:55:28.354368
MEAN_MOTION    = 13.77492809
ECCENTRICITY   = .0023651
INCLINATION    = 82.9460
RA_OF_ASC_NODE = 179.6363
ARG_OF_PERICENTER = 72.9451
MEAN_ANOMALY   = 91.6576

EPHEMERIS_TYPE = 0
CLASSIFICATION_TYPE = U
NORAD_CAT_ID   = 21088
ELEMENT_SET_NO = 999
REV_AT_EPOCH   = 76229
BSTAR          = .41031E-4
MEAN_MOTION_DOT = .56E-6
MEAN_MOTION_DDOT = 0

CCSDS_OMM_VERS = 2.0
CREATION_DATE  = 
ORIGINATOR     = 

OBJECT_NAME    = OKEAN-3
OBJECT_ID      = 1991-039A
CENTER_NAME    = EARTH
REF_FRAME      = TEME
TIME_SYSTEM    = UTC
MEAN_ELEMENT_THEORY = SGP/SGP4

EPOCH          = 2026-02-24T18:40:55.184736
MEAN_MOTION    = 15.04701339
ECCENTRICITY   = .0014912
INCLINATION    = 82.5201
RA_OF_ASC_NODE = 349.3487
ARG_OF_PERICENTER = 21.4711
MEAN_ANOMALY   = 338.7138

EPHEMERIS_TYPE = 0
CLASSIFICATION_TYPE = U
NORAD_CAT_ID   = 21397
ELEMENT_SET_NO = 999
REV_AT_EPOCH   = 86309
BSTAR          = .22971E-3
MEAN_MOTION_DOT = .3267E-4
MEAN_MOTION_DDOT = 0

CCSDS_OMM_VERS = 2.0
CREATION_DATE  = 
ORIGINATOR     = 

OBJECT_NAME    = COSMOS 2151
OBJECT_ID      = 1991-042A
CENTER_NAME    = EARTH
REF_FRAME      = TEME
TIME_SYSTEM    = UTC
MEAN_ELEMENT_THEORY = SGP/SGP4

EPOCH          = 2026-02-24T19:25:20.813952
MEAN_MOTION    = 15.00049475
ECCENTRICITY   = .001412
INCLINATION    = 82.4939
RA_OF_ASC_NODE = 96.1036
ARG_OF_PERICENTER = 102.0827
MEAN_ANOMALY   = 258.1980

EPHEMERIS_TYPE = 0
CLASSIFICATION_TYPE = U
NORAD_CAT_ID   = 21422
ELEMENT_SET_NO = 999
REV_AT_EPOCH   = 86126
BSTAR          = .11648E-3
MEAN_MOTION_DOT = .148E-4
MEAN_MOTION_DDOT = 0

